OBJECT_NAME,OBJECT_ID,EPOCH,MEAN_MOTION,ECCENTRICITY,INCLINATION,RA_OF_ASC_NODE,ARG_OF_PERICENTER,MEAN_ANOMALY,EPHEMERIS_TYPE,CLASSIFICATION_TYPE,NORAD_CAT_ID,ELEMENT_SET_NO,REV_AT_EPOCH,BSTAR,MEAN_MOTION_DOT,MEAN_MOTION_DDOT
INTELSAT 23 (IS-23),2012-057A,2026-07-16T19:54:48.628800,1.00263219,.0000709,0.0191,314.3762,300.0919,285.8764,0,U,38867,999,5025,0,-.295E-5,0
FM-6,2013-058A,2026-07-16T09:26:38.654016,1.00271034,.0001588,0.0150,42.5489,139.8142,137.1641,0,U,39360,999,4636,0,-.26E-6,0
INTELSAT 30 (IS-30),2014-062A,2026-07-16T13:34:38.779968,1.00282075,.0001293,0.0203,53.9469,348.4418,0.6250,0,U,40271,999,708,0,-.163E-5,0
DIRECTV 14,2014-078B,2026-07-16T14:33:23.039424,1.00271916,.000048,0.0101,43.9278,317.0813,52.5317,0,U,40333,999,4233,0,-.136E-5,0
DIRECTV 15,2015-026A,2026-07-16T14:32:38.111424,1.00268719,.0000264,0.0230,76.6558,264.8032,68.2365,0,U,40663,999,4075,0,-.113E-5,0
SKY MEXICO-1,2015-026B,2026-07-16T19:47:23.062272,1.00273057,.0002296,0.0129,61.0331,72.1021,19.5537,0,U,40664,999,4075,0,-.245E-5,0
INTELSAT 34 (IS-34),2015-039A,2026-07-16T19:54:03.699936,1.00269329,.0000392,0.0105,25.3018,349.5333,162.8302,0,U,40874,999,3993,0,-.296E-5,0
INTELSAT 31 (IS-31),2016-035A,2026-07-16T19:42:38.515968,1.00270146,.0001092,0.0172,233.0255,63.8050,198.4177,0,U,41581,999,3698,0,-.161E-5,0
INTELSAT 36 (IS-36),2016-053A,2026-07-16T08:30:43.526880,1.00270623,.0002351,0.0127,38.7567,300.8444,150.7380,0,U,41747,999,3625,0,-.35E-6,0
INTELSAT 32E (IS-32E),2017-007B,2026-07-16T18:54:38.879136,1.00269913,.0000433,0.0225,58.7860,299.9397,176.3763,0,U,41945,999,3452,0,0,0
INTELSAT 35E (IS-35E),2017-041A,2026-07-16T20:25:38.554752,1.00272989,.0001858,0.0186,45.6193,72.1335,88.8239,0,U,42818,999,3311,0,-.248E-5,0
INTELSAT 37E (IS-37E),2017-059A,2026-07-16T20:09:38.668032,1.00272758,.000258,0.0152,63.4270,56.6447,98.9870,0,U,42950,999,3236,0,-.151E-5,0
AZERSPACE 2 (IS-38),2018-074A,2026-07-16T19:34:38.714304,1.00270127,.0001389,0.0216,55.7578,62.1963,155.4737,0,U,43632,999,2874,0,0,0
HORIZONS-3E,2018-074B,2026-07-16T19:15:26.125344,1.00272425,.0000748,0.0390,232.5374,54.4484,105.4892,0,U,43633,999,2863,0,-.41E-6,0
AT&T T-16,2019-034A,2026-07-16T09:50:38.745888,1.00272155,.0000565,0.0161,73.6901,259.4193,7.9269,0,U,44333,999,2592,0,-.126E-5,0
INTELSAT 39 (IS-39),2019-049B,2026-07-16T20:27:34.127712,1.00270978,.0000561,0.0220,59.4088,281.9492,322.1688,0,U,44476,999,2542,0,0,0
GALAXY 30 (G-30),2020-056C,2026-07-16T17:51:33.562944,1.00270671,.0002193,0.0213,57.4672,59.3250,320.6798,0,U,46114,999,2158,0,0,0
GALAXY 33 (G-33),2022-128A,2026-07-16T17:49:18.778944,1.00270123,.0001838,0.0135,57.3083,56.8760,314.7057,0,U,54026,999,1403,0,.69E-6,0
GALAXY 34 (G-34),2022-128B,2026-07-16T21:05:14.578080,1.00271525,.0001394,0.0108,52.9253,78.9388,350.1440,0,U,54027,999,1421,0,.49E-6,0
GALAXY 31 (G-31),2022-153A,2026-07-16T14:27:23.611968,1.00271599,.0001035,0.0153,90.3322,29.2843,270.6424,0,U,54243,999,742,0,.3E-7,0
GALAXY 32 (G-32),2022-153B,2026-07-16T12:53:20.014944,1.00272432,.0001346,0.0103,55.2860,349.2681,352.1401,0,U,54244,999,1343,0,-.185E-5,0
GALAXY 35 (G-35),2022-170A,2026-07-16T19:43:23.443968,1.00272253,.0001819,0.0152,77.2620,38.8043,21.3120,0,U,54741,999,1319,0,-.173E-5,0
GALAXY 36 (G-36),2022-170B,2026-07-16T19:44:23.350272,1.00271796,.0002552,0.0157,95.4101,3.1568,43.1742,0,U,54742,999,1307,0,-.196E-5,0
GALAXY 37 (G-37),2023-112A,2026-07-16T04:09:46.029024,1.00271297,.0001823,0.0184,49.9091,68.6969,110.8601,0,U,57493,999,1083,0,0,0
